XRISM                   
1 57800U 23137A   26089.44066655  .00007385  00000+0  41671-3 0  9991
2 57800  31.0018 149.4202 0007961 247.7417 112.2377 15.11742655140939
ACS3                    
1 59588U 24077B   26089.58789285  .00026979  00000+0  21156-1 0  9990
2 59588  97.1963  26.0027 0072873  29.0664 331.4527 13.90583245 97105
SZ-21 MODULE            
1 66515U 25246C   26089.30993578  .00048483  00000+0  38893-3 0  9991
2 66515  41.4738  76.2734 0002020 214.1142 145.9571 15.70166693 21313
